{
  "type": "FeatureCollection",
  "features": [
    {
      "type": "Feature",
      "properties": {
        "norad_id": 66491,
        "name": "STARLINK-35663",
        "group": "last-30-days",
        "lat": -24.622237726396108,
        "lon": 124.65591328016234,
        "alt_km": 410.61610073114116,
        "timestamp": "2025-12-07T18:50:15.513805+00:00",
        "meta_object_name": "STARLINK-35663",
        "meta_object_id": "2025-263G",
        "meta_epoch": "2025-12-07T06:00:04.999968",
        "meta_mean_motion": 15.55003434,
        "meta_eccentricity": 0.00012856,
        "meta_inclination": 43.0001,
        "meta_ra_of_asc_node": 157.2605,
        "meta_arg_of_pericenter": 268.6572,
        "meta_mean_anomaly": 298.4102,
        "meta_ephemeris_type": 0,
        "meta_classification_type": "U",
        "meta_norad_cat_id": 66491,
        "meta_element_set_no": 999,
        "meta_rev_at_epoch": 475,
        "meta_bstar": -0.03407017,
        "meta_mean_motion_dot": -0.02087937,
        "meta_mean_motion_ddot": 0,
        "tle_line1": "1 66491U 25263G   25341.25005787 -.02087937  00000+0 -34070-1 0  9995",
        "tle_line2": "2 66491  43.0001 157.2605 0001285 268.6572 298.4102 15.55003434  4756"
      },
      "geometry": {
        "type": "Point",
        "coordinates": [
          124.65591328016234,
          -24.622237726396108
        ]
      }
    },
    {
      "type": "Feature",
      "properties": {
        "norad_id": 66492,
        "name": "STARLINK-35673",
        "group": "last-30-days",
        "lat": -23.47497567317577,
        "lon": 126.3331747573095,
        "alt_km": 410.48345778460134,
        "timestamp": "2025-12-07T18:50:15.513815+00:00",
        "meta_object_name": "STARLINK-35673",
        "meta_object_id": "2025-263H",
        "meta_epoch": "2025-12-07T06:00:04.999968",
        "meta_mean_motion": 15.55002521,
        "meta_eccentricity": 0.00013819,
        "meta_inclination": 43.0001,
        "meta_ra_of_asc_node": 157.2558,
        "meta_arg_of_pericenter": 269.706,
        "meta_mean_anomaly": 299.2768,
        "meta_ephemeris_type": 0,
        "meta_classification_type": "U",
        "meta_norad_cat_id": 66492,
        "meta_element_set_no": 999,
        "meta_rev_at_epoch": 475,
        "meta_bstar": -0.034009039,
        "meta_mean_motion_dot": -0.02084601,
        "meta_mean_motion_ddot": 0,
        "tle_line1": "1 66492U 25263H   25341.25005787 -.02084601  00000+0 -34009-1 0  9993",
        "tle_line2": "2 66492  43.0001 157.2558 0001381 269.7060 299.2768 15.55002521  4758"
      },
      "geometry": {
        "type": "Point",
        "coordinates": [
          126.3331747573095,
          -23.47497567317577
        ]
      }
    },
    {
      "type": "Feature",
      "properties": {
        "norad_id": 66493,
        "name": "STARLINK-35597",
        "group": "last-30-days",
        "lat": -22.310215529026188,
        "lon": 127.98041452926716,
        "alt_km": 410.4359112542379,
        "timestamp": "2025-12-07T18:50:15.513825+00:00",
        "meta_object_name": "STARLINK-35597",
        "meta_object_id": "2025-263J",
        "meta_epoch": "2025-12-07T06:00:04.999968",
        "meta_mean_motion": 15.54994577,
        "meta_eccentricity": 0.00012743,
        "meta_inclination": 43.0004,
        "meta_ra_of_asc_node": 157.2503,
        "meta_arg_of_pericenter": 270.6508,
        "meta_mean_anomaly": 300.254,
        "meta_ephemeris_type": 0,
        "meta_classification_type": "U",
        "meta_norad_cat_id": 66493,
        "meta_element_set_no": 999,
        "meta_rev_at_epoch": 475,
        "meta_bstar": -0.033828492,
        "meta_mean_motion_dot": -0.02074127,
        "meta_mean_motion_ddot": 0,
        "tle_line1": "1 66493U 25263J   25341.25005787 -.02074127  00000+0 -33828-1 0  9994",
        "tle_line2": "2 66493  43.0004 157.2503 0001274 270.6508 300.2540 15.54994577  4752"
      },
      "geometry": {
        "type": "Point",
        "coordinates": [
          127.98041452926716,
          -22.310215529026188
        ]
      }
    },
    {
      "type": "Feature",
      "properties": {
        "norad_id": 66494,
        "name": "STARLINK-35689",
        "group": "last-30-days",
        "lat": -25.747502550876877,
        "lon": 122.95251444437369,
        "alt_km": 410.9439976982585,
        "timestamp": "2025-12-07T18:50:15.513835+00:00",
        "meta_object_name": "STARLINK-35689",
        "meta_object_id": "2025-263K",
        "meta_epoch": "2025-12-07T06:00:04.999968",
        "meta_mean_motion": 15.54996879,
        "meta_eccentricity": 0.00012255,
        "meta_inclination": 43.0001,
        "meta_ra_of_asc_node": 157.2654,
        "meta_arg_of_pericenter": 255.4558,
        "meta_mean_anomaly": 309.6965,
        "meta_ephemeris_type": 0,
        "meta_classification_type": "U",
        "meta_norad_cat_id": 66494,
        "meta_element_set_no": 999,
        "meta_rev_at_epoch": 475,
        "meta_bstar": -0.033898333,
        "meta_mean_motion_dot": -0.02078069,
        "meta_mean_motion_ddot": 0,
        "tle_line1": "1 66494U 25263K   25341.25005787 -.02078069  00000+0 -33898-1 0  9991",
        "tle_line2": "2 66494  43.0001 157.2654 0001225 255.4558 309.6965 15.54996879  4750"
      },
      "geometry": {
        "type": "Point",
        "coordinates": [
          122.95251444437369,
          -25.747502550876877
        ]
      }
    },
    {
      "type": "Feature",
      "properties": {
        "norad_id": 66495,
        "name": "STARLINK-35832",
        "group": "last-30-days",
        "lat": -21.128589696005207,
        "lon": 129.60153261786152,
        "alt_km": 410.4691535980837,
        "timestamp": "2025-12-07T18:50:15.513846+00:00",
        "meta_object_name": "STARLINK-35832",
        "meta_object_id": "2025-263L",
        "meta_epoch": "2025-12-07T06:00:04.999968",
        "meta_mean_motion": 15.54998928,
        "meta_eccentricity": 0.00013481,
        "meta_inclination": 43.0005,
        "meta_ra_of_asc_node": 157.2459,
        "meta_arg_of_pericenter": 264.5498,
        "meta_mean_anomaly": 308.2696,
        "meta_ephemeris_type": 0,
        "meta_classification_type": "U",
        "meta_norad_cat_id": 66495,
        "meta_element_set_no": 999,
        "meta_rev_at_epoch": 475,
        "meta_bstar": -0.033920242,
        "meta_mean_motion_dot": -0.02079484,
        "meta_mean_motion_ddot": 0,
        "tle_line1": "1 66495U 25263L   25341.25005787 -.02079484  00000+0 -33920-1 0  9990",
        "tle_line2": "2 66495  43.0005 157.2459 0001348 264.5498 308.2696 15.54998928  4751"
      },
      "geometry": {
        "type": "Point",
        "coordinates": [
          129.60153261786152,
          -21.128589696005207
        ]
      }
    },
    {
      "type": "Feature",
      "properties": {
        "norad_id": 66496,
        "name": "STARLINK-35909",
        "group": "last-30-days",
        "lat": -19.932799929058305,
        "lon": 131.19428202184523,
        "alt_km": 410.3175792209786,
        "timestamp": "2025-12-07T18:50:15.513856+00:00",
        "meta_object_name": "STARLINK-35909",
        "meta_object_id": "2025-263M",
        "meta_epoch": "2025-12-07T06:00:04.999968",
        "meta_mean_motion": 15.54995942,
        "meta_eccentricity": 0.00012661,
        "meta_inclination": 43.0001,
        "meta_ra_of_asc_node": 157.2409,
        "meta_arg_of_pericenter": 269.5422,
        "meta_mean_anomaly": 305.1957,
        "meta_ephemeris_type": 0,
        "meta_classification_type": "U",
        "meta_norad_cat_id": 66496,
        "meta_element_set_no": 999,
        "meta_rev_at_epoch": 475,
        "meta_bstar": -0.033840874,
        "meta_mean_motion_dot": -0.02074892,
        "meta_mean_motion_ddot": 0,
        "tle_line1": "1 66496U 25263M   25341.25005787 -.02074892  00000+0 -33841-1 0  9991",
        "tle_line2": "2 66496  43.0001 157.2409 0001266 269.5422 305.1957 15.54995942  4753"
      },
      "geometry": {
        "type": "Point",
        "coordinates": [
          131.19428202184523,
          -19.932799929058305
        ]
      }
    },
    {
      "type": "Feature",
      "properties": {
        "norad_id": 66497,
        "name": "STARLINK-35899",
        "group": "last-30-days",
        "lat": -18.72395590536197,
        "lon": 132.76163544597748,
        "alt_km": 410.1323593694333,
        "timestamp": "2025-12-07T18:50:15.513866+00:00",
        "meta_object_name": "STARLINK-35899",
        "meta_object_id": "2025-263N",
        "meta_epoch": "2025-12-07T06:00:04.999968",
        "meta_mean_motion": 15.5500322,
        "meta_eccentricity": 0.00014968,
        "meta_inclination": 43.0003,
        "meta_ra_of_asc_node": 157.2354,
        "meta_arg_of_pericenter": 271.6398,
        "meta_mean_anomaly": 305.0127,
        "meta_ephemeris_type": 0,
        "meta_classification_type": "U",
        "meta_norad_cat_id": 66497,
        "meta_element_set_no": 999,
        "meta_rev_at_epoch": 475,
        "meta_bstar": -0.034060756,
        "meta_mean_motion_dot": -0.02087547,
        "meta_mean_motion_ddot": 0,
        "tle_line1": "1 66497U 25263N   25341.25005787 -.02087547  00000+0 -34061-1 0  9998",
        "tle_line2": "2 66497  43.0003 157.2354 0001496 271.6398 305.0127 15.55003220  4754"
      },
      "geometry": {
        "type": "Point",
        "coordinates": [
          132.76163544597748,
          -18.72395590536197
        ]
      }
    }
  ]
}